NORAD_CAT_ID,OBJECT_NAME,OBJECT_TYPE,EPOCH,MEAN_MOTION,ECCENTRICITY,INCLINATION,RA_OF_ASC_NODE,ARG_OF_PERICENTER,MEAN_ANOMALY,BSTAR,MEAN_MOTION_DOT,MEAN_MOTION_DDOT,TLE_LINE0,TLE_LINE1,TLE_LINE2,SEMIMAJOR_AXIS,PERIOD,APOGEE,PERIGEE,DECAYED
53005.0,STARLINK-4288,PAYLOAD,2024-06-06 02:59:47,15.08837334,0.0001504,53.2201,94.2229,109.1847,250.9308,-0.00011975,-2.193e-05,0.0,0 STARLINK-4288,1 53005U 22076V   24158.12485720 -.00002193  00000-0 -11975-3 0  9992,2 53005  53.2201  94.2229 0001504 109.1847 250.9308 15.08837334106462,6917.889,95.438,540.794,538.713,0.0
53005.0,STARLINK-4288,PAYLOAD,2024-06-06 12:32:05,15.08843718,0.0001396,53.2199,92.4374,99.6672,260.4478,-4.5048e-05,-1.005e-05,0.0,0 STARLINK-4288,1 53005U 22076V   24158.52229165 -.00001005  00000-0 -45048-4 0  9995,2 53005  53.2199  92.4374 0001396  99.6672 260.4478 15.08843718106521,6917.869,95.437,540.7,538.768,0.0
53005.0,STARLINK-4288,PAYLOAD,2024-06-07 12:22:52,15.08845404,0.0001173,53.219,87.9747,96.2635,263.8491,6.9717e-05,8.22e-06,0.0,0 STARLINK-4288,1 53005U 22076V   24159.51589119  .00000822  00000-0  69717-4 0  9996,2 53005  53.2190  87.9747 0001173  96.2635 263.8491 15.08845404106201,6917.864,95.437,540.54,538.917,0.0
53005.0,STARLINK-4288,PAYLOAD,2024-06-08 04:16:44,15.08851921,0.0001187,53.2184,85.0011,93.3264,266.7864,0.00028021,4.176e-05,0.0,0 STARLINK-4288,1 53005U 22076V   24160.17828940  .00004176  00000-0  28021-3 0  9996,2 53005  53.2184  85.0011 0001187  93.3264 266.7864 15.08851921106777,6917.844,95.437,540.53,538.888,0.0
53005.0,STARLINK-4288,PAYLOAD,2024-06-08 12:13:40,15.08833254,0.0001528,53.2182,83.5153,78.5537,281.5627,-1.4264e-05,-5.15e-06,0.0,0 STARLINK-4288,1 53005U 22076V   24160.50950077 -.00000515  00000-0 -14264-4 0  9990,2 53005  53.2182  83.5153 0001528  78.5537 281.5627 15.08833254106357,6917.901,95.438,540.823,538.709,0.0
53005.0,STARLINK-4288,PAYLOAD,2024-06-08 18:35:13,15.08833404,0.0001873,53.2181,82.3249,79.1304,280.9899,-2.5623e-05,-6.96e-06,0.0,0 STARLINK-4288,1 53005U 22076V   24160.77446327 -.00000696  00000-0 -25623-4 0  9998,2 53005  53.2181  82.3249 0001873  79.1304 280.9899 15.08833404106868,6917.901,95.438,541.061,538.47,0.0
53005.0,STARLINK-4288,PAYLOAD,2024-06-09 02:32:09,15.08840031,0.0001681,53.2166,80.8387,80.2586,279.8596,6.6124e-05,7.64e-06,0.0,0 STARLINK-4288,1 53005U 22076V   24161.10566155  .00000764  00000-0  66124-4 0  9993,2 53005  53.2166  80.8387 0001681  80.2586 279.8596 15.08840031106448,6917.88,95.438,540.908,538.582,0.0
53005.0,STARLINK-4288,PAYLOAD,2024-06-10 11:55:14,15.08846919,0.0001156,53.2173,74.5931,99.9832,260.1291,3.1057e-06,-2.38e-06,0.0,0 STARLINK-4288,1 53005U 22076V   24162.49669697 -.00000238  00000-0  31057-5 0  9996,2 53005  53.2173  74.5931 0001156  99.9832 260.1291 15.08846919107121,6917.859,95.437,540.524,538.925,0.0
53005.0,STARLINK-4288,PAYLOAD,2024-06-10 21:27:34,15.08835501,0.000145,53.2176,72.8092,86.8932,273.2226,0.00013118,1.8e-05,0.0,0 STARLINK-4288,1 53005U 22076V   24162.89414515  .00001800  00000-0  13118-3 0  9998,2 53005  53.2176  72.8092 0001450  86.8932 273.2226 15.08835501107180,6917.894,95.438,540.762,538.756,0.0
53005.0,STARLINK-4288,PAYLOAD,2024-06-10 23:02:56,15.08840918,0.0001626,53.2181,72.5117,89.4494,270.6685,0.00013092,1.796e-05,0.0,0 STARLINK-4288,1 53005U 22076V   24162.96038190  .00001796  00000-0  13092-3 0  9992,2 53005  53.2181  72.5117 0001626  89.4494 270.6685 15.08840918106725,6917.878,95.437,540.867,538.618,0.0
53005.0,STARLINK-4288,PAYLOAD,2024-06-11 03:49:06,15.08845297,0.0001434,53.2192,71.6195,84.504,275.6115,9.619e-05,1.243e-05,0.0,0 STARLINK-4288,1 53005U 22076V   24163.15909952  .00001243  00000-0  96190-4 0  9995,2 53005  53.2192  71.6195 0001434  84.5040 275.6115 15.08845297107227,6917.864,95.437,540.721,538.737,0.0
53005.0,STARLINK-4288,PAYLOAD,2024-06-12 00:29:07,15.0881994,0.0001547,53.219,67.7529,98.2316,261.8851,0.00034542,5.211e-05,0.0,0 STARLINK-4288,1 53005U 22076V   24164.02022912  .00005211  00000-0  34542-3 0  9995,2 53005  53.2190  67.7529 0001547  98.2316 261.8851 15.08819940107359,6917.942,95.439,540.877,538.736,0.0
53005.0,STARLINK-4288,PAYLOAD,2024-06-12 21:09:08,15.08830769,0.0001615,53.2203,63.8928,101.1274,258.9899,1.8052e-05,-1e-08,0.0,0 STARLINK-4288,1 53005U 22076V   24164.88135306 -.00000001  00000-0  18052-4 0  9993,2 53005  53.2203  63.8928 0001615 101.1274 258.9899 15.08830769107011,6917.909,95.438,540.891,538.656,0.0
53005.0,STARLINK-4288,PAYLOAD,2024-06-13 09:52:13,15.08853772,0.0001585,53.2203,61.5178,100.7706,259.3464,-0.00022348,-3.844e-05,0.0,0 STARLINK-4288,1 53005U 22076V   24165.41126392 -.00003844  00000-0 -22348-3 0  9999,2 53005  53.2203  61.5178 0001585 100.7706 259.3464 15.08853772107566,6917.838,95.437,540.8,538.607,0.0
53005.0,STARLINK-4288,PAYLOAD,2024-06-13 22:35:18,15.08829418,0.00018,53.22,59.138,112.7949,247.3234,0.00025369,3.751e-05,0.0,0 STARLINK-4288,1 53005U 22076V   24165.94118878  .00003751  00000-0  25369-3 0  9998,2 53005  53.2200  59.1380 0001800 112.7949 247.3234 15.08829418107172,6917.913,95.438,541.023,538.533,0.0
53005.0,STARLINK-4288,PAYLOAD,2024-06-14 09:43:00,15.08844236,0.0001551,53.2192,57.0536,93.1199,266.997,0.00010289,1.35e-05,0.0,0 STARLINK-4288,1 53005U 22076V   24166.40486499  .00001350  00000-0  10289-3 0  9995,2 53005  53.2192  57.0536 0001551  93.1199 266.9970 15.08844236107241,6917.867,95.437,540.805,538.659,0.0
53005.0,STARLINK-4288,PAYLOAD,2024-06-14 22:26:05,15.0883849,0.0001671,53.2197,54.6752,94.6876,265.4307,0.00012108,1.639e-05,0.0,0 STARLINK-4288,1 53005U 22076V   24166.93478898  .00001639  00000-0  12108-3 0  9999,2 53005  53.2197  54.6752 0001671  94.6876 265.4307 15.08838490107322,6917.885,95.438,540.906,538.594,0.0
53005.0,STARLINK-4288,PAYLOAD,2024-06-15 09:33:47,15.08842843,0.0001609,53.2192,52.5928,94.6319,265.4857,8.6986e-05,1.097e-05,0.0,0 STARLINK-4288,1 53005U 22076V   24167.39846661  .00001097  00000-0  86986-4 0  9991,2 53005  53.2192  52.5928 0001609  94.6319 265.4857 15.08842843107396,6917.872,95.437,540.85,538.624,0.0
53005.0,STARLINK-4288,PAYLOAD,2024-06-15 22:16:52,15.08846519,0.0001296,53.2169,50.2104,87.3702,272.7439,3.305e-05,2.38e-06,0.0,0 STARLINK-4288,1 53005U 22076V   24167.92838426  .00000238  00000-0  33050-4 0  9990,2 53005  53.2169  50.2104 0001296  87.3702 272.7439 15.08846519107478,6917.86,95.437,540.622,538.829,0.0
53005.0,STARLINK-4288,PAYLOAD,2024-06-16 09:24:34,15.08843938,0.0001608,53.2187,48.1308,82.179,277.9385,1.32e-05,-7.8e-07,0.0,0 STARLINK-4288,1 53005U 22076V   24168.39206539 -.00000078  00000-0  13200-4 0  9994,2 53005  53.2187  48.1308 0001608  82.1790 277.9385 15.08843938107544,6917.868,95.437,540.846,538.621,0.0
53005.0,STARLINK-4288,PAYLOAD,2024-06-16 22:07:39,15.08837597,0.0001411,53.2179,45.7497,88.5347,271.5807,3.2979e-05,2.37e-06,0.0,0 STARLINK-4288,1 53005U 22076V   24168.92198897  .00000237  00000-0  32979-4 0  9990,2 53005  53.2179  45.7497 0001411  88.5347 271.5807 15.08837597107629,6917.888,95.438,540.729,538.777,0.0
53005.0,STARLINK-4288,PAYLOAD,2024-06-17 21:58:26,15.08840511,0.0001402,53.2194,41.2881,100.9704,259.1446,7.0281e-05,8.31e-06,0.0,0 STARLINK-4288,1 53005U 22076V   24169.91558560  .00000831  00000-0  70281-4 0  9995,2 53005  53.2194  41.2881 0001402 100.9704 259.1446 15.08840511108240,6917.879,95.438,540.714,538.774,0.0
53005.0,STARLINK-4288,PAYLOAD,2024-06-18 21:49:12,15.08858741,0.0001446,53.2181,36.8285,95.8876,264.2281,0.00024748,3.655e-05,0.0,0 STARLINK-4288,1 53005U 22076V   24170.90916823  .00003655  00000-0  24748-3 0  9999,2 53005  53.2181  36.8285 0001446  95.8876 264.2281 15.08858741108398,6917.823,95.436,540.688,538.688,0.0
53005.0,STARLINK-4288,PAYLOAD,2024-06-19 00:59:58,15.08858663,0.0001424,53.2182,36.2332,95.5523,264.5632,0.00019494,2.817e-05,0.0,0 STARLINK-4288,1 53005U 22076V   24171.04164747  .00002817  00000-0  19494-3 0  9996,2 53005  53.2182  36.2332 0001424  95.5523 264.5632 15.08858663107944,6917.823,95.436,540.673,538.703,0.0
53005.0,STARLINK-4288,PAYLOAD,2024-06-19 20:04:37,15.08832568,0.0001497,53.2194,32.6664,104.8847,255.2311,-1.5615e-05,-5.36e-06,0.0,0 STARLINK-4288,1 53005U 22076V   24171.83655034 -.00000536  00000-0 -15615-4 0  9997,2 53005  53.2194  32.6664 0001497 104.8847 255.2311 15.08832568108531,6917.903,95.438,540.804,538.732,0.0
53005.0,STARLINK-4288,PAYLOAD,2024-06-19 21:40:01,15.08834984,0.0001475,53.2193,32.3698,102.6492,257.4665,-3.5618e-05,-8.55e-06,0.0,0 STARLINK-4288,1 53005U 22076V   24171.90278984 -.00000855  00000-0 -35618-4 0  9999,2 53005  53.2193  32.3698 0001475 102.6492 257.4665 15.08834984108071,6917.896,95.438,540.781,538.74,0.0
53005.0,STARLINK-4288,PAYLOAD,2024-06-20 15:09:15,15.08847179,0.0001277,53.2174,29.0976,91.6635,268.4503,-0.00016443,-2.904e-05,0.0,0 STARLINK-4288,1 53005U 22076V   24172.63142922 -.00002904  00000-0 -16443-3 0  9993,2 53005  53.2174  29.0976 0001277  91.6635 268.4503 15.08847179108183,6917.858,95.437,540.607,538.84,0.0
53005.0,STARLINK-4288,PAYLOAD,2024-06-20 21:30:47,15.08851095,0.0001408,53.2177,27.9085,94.49,265.6252,-8.504e-05,-1.642e-05,0.0,0 STARLINK-4288,1 53005U 22076V   24172.89638306 -.00001642  00000-0 -85040-4 0  9995,2 53005  53.2177  27.9085 0001408  94.4900 265.6252 15.08851095108694,6917.846,95.437,540.686,538.737,0.0
53005.0,STARLINK-4288,PAYLOAD,2024-06-21 00:41:33,15.08853682,0.0001359,53.2177,27.3134,90.8592,269.2556,-8.9958e-05,-1.72e-05,0.0,0 STARLINK-4288,1 53005U 22076V   24173.02886075 -.00001720  00000-0 -89958-4 0  9998,2 53005  53.2177  27.3134 0001359  90.8592 269.2556 15.08853682108247,6917.839,95.437,540.644,538.763,0.0
53005.0,STARLINK-4288,PAYLOAD,2024-06-21 21:21:36,15.08795869,0.0001724,53.2187,23.4464,86.6841,273.4348,0.00070238,0.00010895,0.0,0 STARLINK-4288,1 53005U 22076V   24173.89000414  .00010895  00000-0  70238-3 0  9999,2 53005  53.2187  23.4464 0001724  86.6841 273.4348 15.08795869108841,6918.015,95.44,541.073,538.688,0.0
